[{"OBJECT_NAME":"STARLINK-34988","OBJECT_ID":"2025-194V","EPOCH":"2026-03-09T14:43:43.705056","MEAN_MOTION":15.01260784,"ECCENTRICITY":0.0002492,"INCLINATION":97.6042,"RA_OF_ASC_NODE":285.4211,"ARG_OF_PERICENTER":53.9876,"MEAN_ANOMALY":306.1579,"EPHEMERIS_TYPE":0,"CLASSIFICATION_TYPE":"U","NORAD_CAT_ID":65453,"ELEMENT_SET_NO":999,"REV_AT_EPOCH":2970,"BSTAR":0.00019946,"MEAN_MOTION_DOT":2.505e-5,"MEAN_MOTION_DDOT":0},{"OBJECT_NAME":"CZ-6A DEB","OBJECT_ID":"2024-140AET","EPOCH":"2026-03-09T12:52:08.504256","MEAN_MOTION":14.9565513,"ECCENTRICITY":0.00551091,"INCLINATION":88.9325,"RA_OF_ASC_NODE":275.873,"ARG_OF_PERICENTER":183.9615,"MEAN_ANOMALY":176.1189,"EPHEMERIS_TYPE":0,"CLASSIFICATION_TYPE":"U","NORAD_CAT_ID":64653,"ELEMENT_SET_NO":999,"REV_AT_EPOCH":7426,"BSTAR":0.0038297655,"MEAN_MOTION_DOT":0.00044109,"MEAN_MOTION_DDOT":0}]
